[{"OBJECT_NAME":"RISAT-2BR1","OBJECT_ID":"2019-089F","EPOCH":"2026-03-09T22:23:56.080608","MEAN_MOTION":15.01632497,"ECCENTRICITY":0.00130957,"INCLINATION":36.9618,"RA_OF_ASC_NODE":340.419,"ARG_OF_PERICENTER":88.0635,"MEAN_ANOMALY":272.1607,"EPHEMERIS_TYPE":0,"CLASSIFICATION_TYPE":"U","NORAD_CAT_ID":44857,"ELEMENT_SET_NO":999,"REV_AT_EPOCH":34227,"BSTAR":0.00042406412,"MEAN_MOTION_DOT":5.543e-5,"MEAN_MOTION_DDOT":0},{"OBJECT_NAME":"STARLINK-34923","OBJECT_ID":"2025-179N","EPOCH":"2026-03-09T16:30:15.046560","MEAN_MOTION":15.0565355,"ECCENTRICITY":0.0001377,"INCLINATION":97.6029,"RA_OF_ASC_NODE":112.8951,"ARG_OF_PERICENTER":155.5655,"MEAN_ANOMALY":204.5637,"EPHEMERIS_TYPE":0,"CLASSIFICATION_TYPE":"U","NORAD_CAT_ID":65247,"ELEMENT_SET_NO":999,"REV_AT_EPOCH":3186,"BSTAR":0.00024357293,"MEAN_MOTION_DOT":3.456e-5,"MEAN_MOTION_DDOT":0}]
